[{"OBJECT_NAME":"PRAETORIAN SDA_611","OBJECT_ID":"2025-203K","EPOCH":"2026-03-09T12:43:32.643552","MEAN_MOTION":13.83296236,"ECCENTRICITY":0.00068676,"INCLINATION":81.297,"RA_OF_ASC_NODE":103.1149,"ARG_OF_PERICENTER":110.8784,"MEAN_ANOMALY":249.3108,"EPHEMERIS_TYPE":0,"CLASSIFICATION_TYPE":"U","NORAD_CAT_ID":65574,"ELEMENT_SET_NO":999,"REV_AT_EPOCH":2490,"BSTAR":0.00026081524,"MEAN_MOTION_DOT":2.98e-6,"MEAN_MOTION_DDOT":0},{"OBJECT_NAME":"SL-8 DEB","OBJECT_ID":"1977-116C","EPOCH":"2026-03-09T21:57:38.323296","MEAN_MOTION":13.77313825,"ECCENTRICITY":0.00284338,"INCLINATION":65.8293,"RA_OF_ASC_NODE":241.4596,"ARG_OF_PERICENTER":277.107,"MEAN_ANOMALY":234.496,"EPHEMERIS_TYPE":0,"CLASSIFICATION_TYPE":"U","NORAD_CAT_ID":10518,"ELEMENT_SET_NO":999,"REV_AT_EPOCH":42419,"BSTAR":9.5397098e-5,"MEAN_MOTION_DOT":1.4e-7,"MEAN_MOTION_DDOT":0}]
